NORAD_CAT_ID,OBJECT_NAME,OBJECT_TYPE,EPOCH,MEAN_MOTION,ECCENTRICITY,INCLINATION,RA_OF_ASC_NODE,ARG_OF_PERICENTER,MEAN_ANOMALY,BSTAR,MEAN_MOTION_DOT,MEAN_MOTION_DDOT,TLE_LINE0,TLE_LINE1,TLE_LINE2,SEMIMAJOR_AXIS,PERIOD,APOGEE,PERIGEE,DECAYED
51785.0,STARLINK-3646,PAYLOAD,2022-07-10 22:00:00,15.08821943,0.0001748,53.2175,224.6145,46.7577,269.9316,0.0022798,0.00036164,0.0,0 STARLINK-3646,1 51785U 22017T   22191.91667824  .00036164  00000-0  22798-2 0  9996,2 51785  53.2175 224.6145 0001748  46.7577 269.9316 15.08821943  1302,6917.936,95.439,541.01,538.591,0.0
51785.0,STARLINK-3646,PAYLOAD,2022-07-11 06:00:00,15.08862204,0.0001831,53.2174,223.1192,46.5363,281.7394,-0.001755,-0.00028128,0.0,0 STARLINK-3646,1 51785U 22017T   22192.25001157 -.00028128  00000-0 -17550-2 0  9998,2 51785  53.2174 223.1192 0001831  46.5363 281.7394 15.08862204 22206,6917.813,95.436,540.944,538.411,0.0
51785.0,STARLINK-3646,PAYLOAD,2022-07-11 14:00:01,15.08836061,0.000194,53.2166,221.6237,42.0368,297.8457,0.0014602,0.00023025,0.0,0 STARLINK-3646,1 51785U 22017T   22192.58334491  .00023025  00000-0  14602-2 0  9998,2 51785  53.2166 221.6237 0001940  42.0368 297.8457 15.08836061  1305,6917.892,95.438,541.1,538.415,0.0
51785.0,STARLINK-3646,PAYLOAD,2022-07-11 22:00:00,15.08831839,0.0001783,53.2165,220.1256,49.0186,302.4729,0.0013906,0.00021908,0.0,0 STARLINK-3646,1 51785U 22017T   22192.91667824  .00021908  00000-0  13906-2 0  9998,2 51785  53.2165 220.1256 0001783  49.0186 302.4729 15.08831839 22305,6917.905,95.438,541.004,538.5369999999998,0.0
51785.0,STARLINK-3646,PAYLOAD,2022-07-12 14:00:01,15.08819622,0.0002062,53.2158,217.1346,45.8299,328.8454,0.0011317,0.00017759,0.0,0 STARLINK-3646,1 51785U 22017T   22193.58334491  .00017759  00000-0  11317-2 0  9996,2 51785  53.2158 217.1346 0002062  45.8299 328.8454 15.08819622 22407,6917.943,95.439,541.234,538.381,0.0
51785.0,STARLINK-3646,PAYLOAD,2022-07-12 22:00:00,15.08806032,0.0001905,53.2158,215.6365,52.0632,334.2018,0.0029129,0.00046333,0.0,0 STARLINK-3646,1 51785U 22017T   22193.91667824  .00046333  00000-0  29129-2 0  9992,2 51785  53.2158 215.6365 0001905  52.0632 334.2018 15.08806032  1301,6917.984,95.44,541.1669999999998,538.531,0.0
51785.0,STARLINK-3646,PAYLOAD,2022-07-13 14:00:01,15.08832089,0.0002131,53.2154,212.6455,46.4148,3.0103,0.00068712,0.00010662,0.0,0 STARLINK-3646,1 51785U 22017T   22194.58334491  .00010662  00000-0  68712-3 0  9995,2 51785  53.2154 212.6455 0002131  46.4148   3.0103 15.08832089  1302,6917.905,95.438,541.244,538.295,0.0
51785.0,STARLINK-3646,PAYLOAD,2022-07-13 16:00:00,15.08850013,0.0002109,53.2155,212.2709,48.0805,94.2371,-0.0017034,-0.00027304,0.0,0 STARLINK-3646,1 51785U 22017T   22194.66667824 -.00027304  00000-0 -17034-2 0  9996,2 51785  53.2155 212.2709 0002109  48.0805  94.2371 15.08850013 22561,6917.85,95.437,541.174,538.256,0.0
51785.0,STARLINK-3646,PAYLOAD,2022-07-13 22:00:00,15.08813545,0.0001987,53.2156,211.1473,52.2476,8.7753,0.0028379,0.00045134,0.0,0 STARLINK-3646,1 51785U 22017T   22194.91667824  .00045134  00000-0  28379-2 0  9997,2 51785  53.2156 211.1473 0001987  52.2476   8.7753 15.08813545  1304,6917.9609999999975,95.439,541.201,538.452,0.0
51785.0,STARLINK-3646,PAYLOAD,2022-07-14 08:00:01,15.08842053,0.0002215,53.2157,209.2785,49.7464,115.7619,-0.00045362,-7.501e-05,0.0,0 STARLINK-3646,1 51785U 22017T   22195.33334491 -.00007501  00000-0 -45362-3 0  9995,2 51785  53.2157 209.2785 0002215  49.7464 115.7619 15.08842053 22671,6917.874,95.437,541.271,538.207,0.0
51785.0,STARLINK-3646,PAYLOAD,2022-07-14 14:00:01,15.08842009,0.0002227,53.2156,208.1561,47.1656,37.033,0.00023412,3.44e-05,0.0,0 STARLINK-3646,1 51785U 22017T   22195.58334491  .00003440  00000-0  23412-3 0  9990,2 51785  53.2156 208.1561 0002227  47.1656  37.0330 15.08842009  1302,6917.874,95.437,541.28,538.1990000000002,0.0
51785.0,STARLINK-3646,PAYLOAD,2022-07-14 22:00:00,15.08827804,0.0002066,53.216,206.6579,52.1496,43.6545,0.0017491,0.0002765,0.0,0 STARLINK-3646,1 51785U 22017T   22195.91667824  .00027650  00000-0  17491-2 0  9994,2 51785  53.2160 206.6579 0002066  52.1496  43.6545 15.08827804  1305,6917.918000000002,95.438,541.212,538.3530000000002,0.0
51785.0,STARLINK-3646,PAYLOAD,2022-07-15 14:00:01,15.08827291,0.0002228,53.2163,203.6667,46.34,72.6375,-0.00019492,-3.388e-05,0.0,0 STARLINK-3646,1 51785U 22017T   22196.58334491 -.00003388  00000-0 -19492-3 0  9997,2 51785  53.2163 203.6667 0002228  46.3400  72.6375 15.08827291 22859,6917.919,95.438,541.326,538.243,0.0
51785.0,STARLINK-3646,PAYLOAD,2022-07-15 22:00:00,15.08806837,0.0002081,53.2168,202.1687,51.9855,78.5765,0.0025277,0.00040134,0.0,0 STARLINK-3646,1 51785U 22017T   22196.91667824  .00040134  00000-0  25277-2 0  9998,2 51785  53.2168 202.1687 0002081  51.9855  78.5765 15.08806837  1301,6917.982,95.44,541.286,538.4069999999998,0.0
51785.0,STARLINK-3646,PAYLOAD,2022-07-16 14:00:01,15.08841816,0.0002284,53.2171,199.1775,48.1068,105.6103,-0.00070511,-0.00011494,0.0,0 STARLINK-3646,1 51785U 22017T   22197.58334491 -.00011494  00000-0 -70511-3 0  9994,2 51785  53.2171 199.1775 0002284  48.1068 105.6103 15.08841816  1301,6917.875,95.437,541.32,538.16,0.0
51785.0,STARLINK-3646,PAYLOAD,2022-07-16 22:00:00,15.08821561,0.000213,53.2175,197.6797,53.833,111.4835,0.0024172,0.00038373,0.0,0 STARLINK-3646,1 51785U 22017T   22197.91667824  .00038373  00000-0  24172-2 0  9994,2 51785  53.2175 197.6797 0002130  53.8330 111.4835 15.08821561 23066,6917.937,95.439,541.275,538.328,0.0
51785.0,STARLINK-3646,PAYLOAD,2022-07-17 14:00:01,15.08857431,0.0002293,53.2175,194.6884,50.1581,138.3424,-0.0012332,-0.00019871,0.0,0 STARLINK-3646,1 51785U 22017T   22198.58334491 -.00019871  00000-0 -12332-2 0  9998,2 51785  53.2175 194.6884 0002293  50.1581 138.3424 15.08857431 23166,6917.8269999999975,95.436,541.278,538.106,0.0
51785.0,STARLINK-3646,PAYLOAD,2022-07-17 22:00:00,15.08852802,0.0002144,53.2176,193.1881,55.0632,145.0457,-0.00095222,-0.00015417,0.0,0 STARLINK-3646,1 51785U 22017T   22198.91667824 -.00015417  00000-0 -95222-3 0  9996,2 51785  53.2176 193.1881 0002144  55.0632 145.0457 15.08852802  1304,6917.840999999999,95.437,541.189,538.2230000000002,0.0
51785.0,STARLINK-3646,PAYLOAD,2022-07-18 14:00:01,15.08839682,0.0002186,53.2175,190.1995,50.1854,173.0847,-0.0017432,-0.00027925,0.0,0 STARLINK-3646,1 51785U 22017T   22199.58334491 -.00027925  00000-0 -17432-2 0  9994,2 51785  53.2175 190.1995 0002186  50.1854 173.0847 15.08839682  1309,6917.880999999999,95.438,541.259,538.234,0.0
51785.0,STARLINK-3646,PAYLOAD,2022-07-18 16:00:00,15.08839136,0.0002138,53.2177,189.825,51.70399999999999,264.4622,-0.0019886,-0.00031798,0.0,0 STARLINK-3646,1 51785U 22017T   22199.66667824 -.00031798  00000-0 -19886-2 0  9990,2 51785  53.2177 189.8250 0002138  51.7040 264.4622 15.08839136 23327,6917.8830000000025,95.438,541.227,538.269,0.0
51785.0,STARLINK-3646,PAYLOAD,2022-07-18 22:00:00,15.08814732,0.0002068,53.2176,188.7019,56.3036,178.5516,0.0020019,0.00031694,0.0,0 STARLINK-3646,1 51785U 22017T   22199.91667824  .00031694  00000-0  20019-2 0  9991,2 51785  53.2176 188.7019 0002068  56.3036 178.5516 15.08814732  1301,6917.958000000001,95.439,541.253,538.3919999999998,0.0
51785.0,STARLINK-3646,PAYLOAD,2022-07-19 06:00:00,15.0883296,0.0002236,53.2175,187.2075,52.6276,193.8127,-0.00046272,-7.644e-05,0.0,0 STARLINK-3646,1 51785U 22017T   22200.25001157 -.00007644  00000-0 -46272-3 0  9992,2 51785  53.2175 187.2075 0002236  52.6276 193.8127 15.08832960 23415,6917.901999999999,95.438,541.314,538.22,0.0
51785.0,STARLINK-3646,PAYLOAD,2022-07-19 14:00:01,15.08852552,0.0002195,53.2172,185.7107,52.5724,205.4483,-0.0020025,-0.00032029,0.0,0 STARLINK-3646,1 51785U 22017T   22200.58334491 -.00032029  00000-0 -20025-2 0  9990,2 51785  53.2172 185.7107 0002195  52.5724 205.4483 15.08852552  1300,6917.842,95.437,541.225,538.189,0.0
51785.0,STARLINK-3646,PAYLOAD,2022-07-19 22:00:00,15.08836222,0.0002161,53.2175,184.2066,48.0907,221.5596,4.6982e-05,4.59e-06,0.0,0 STARLINK-3646,1 51785U 22017T   22200.91667824  .00000459  00000-0  46982-4 0  9998,2 51785  53.2175 184.2066 0002161  48.0907 221.5596 15.08836222  1307,6917.892,95.438,541.252,538.262,0.0
51785.0,STARLINK-3646,PAYLOAD,2022-07-20 14:00:01,15.08878015,0.0002166999999999,53.2168,181.2218,53.3669,239.4656,-0.0045781,-0.00072494,0.0,0 STARLINK-3646,1 51785U 22017T   22201.58334491 -.00072494  00000-0 -45781-2 0  9997,2 51785  53.2168 181.2218 0002167  53.3669 239.4656 15.08878015  1306,6917.764,95.435,541.128,538.13,0.0
51785.0,STARLINK-3646,PAYLOAD,2022-07-20 22:00:01,15.08822736,0.0002081,53.2168,179.7243,58.4876,246.0125,0.0019948,0.00031587,0.0,0 STARLINK-3646,1 51785U 22017T   22201.91668981  .00031587  00000-0  19948-2 0  9990,2 51785  53.2168 179.7243 0002081  58.4876 246.0125 15.08822736 23664,6917.933000000001,95.439,541.238,538.359,0.0
51785.0,STARLINK-3646,PAYLOAD,2022-07-21 14:00:01,15.0885769,0.0002211999999999,53.2166,176.7327,53.5798,274.0929,-0.002164,-0.00034581,0.0,0 STARLINK-3646,1 51785U 22017T   22202.58335648 -.00034581  00000-0 -21640-2 0  9996,2 51785  53.2166 176.7327 0002212  53.5798 274.0929 15.08857690 23768,6917.826,95.436,541.222,538.161,0.0
51785.0,STARLINK-3646,PAYLOAD,2022-07-21 22:00:00,15.08838932,0.0002177,53.2168,175.2354,59.3155,279.8972,0.0017798999999999,0.00028152,0.0,0 STARLINK-3646,1 51785U 22017T   22202.91667824  .00028152  00000-0  17799-2 0  9992,2 51785  53.2168 175.2354 0002177  59.3155 279.8972 15.08838932  1300,6917.884,95.438,541.255,538.243,0.0
51785.0,STARLINK-3646,PAYLOAD,2022-07-22 06:00:00,15.0885707,0.0002331,53.2167,173.7408,54.2956,296.527,-0.00096838,-0.00015675,0.0,0 STARLINK-3646,1 51785U 22017T   22203.25001157 -.00015675  00000-0 -96838-3 0  9991,2 51785  53.2167 173.7408 0002331  54.2956 296.5270 15.08857070  1308,6917.828,95.436,541.306,538.081,0.0
